{
  "type": "FeatureCollection",
  "features": [
    {
      "type": "Feature",
      "properties": {
        "norad_id": 41581,
        "name": "INTELSAT 31 (IS-31)",
        "group": "intelsat",
        "lat": -0.013429962887660392,
        "lon": -142.13701881571532,
        "alt_km": 35778.89696248563,
        "timestamp": "2025-12-27T14:26:30.184327+00:00",
        "meta_object_name": "INTELSAT 31 (IS-31)",
        "meta_object_id": "2016-035A",
        "meta_epoch": "2025-12-23T19:31:44.703840",
        "meta_mean_motion": 1.00269658,
        "meta_eccentricity": 0.0001926,
        "meta_inclination": 0.0283,
        "meta_ra_of_asc_node": 262.055,
        "meta_arg_of_pericenter": 303.365,
        "meta_mean_anomaly": 85.0534,
        "meta_ephemeris_type": 0,
        "meta_classification_type": "U",
        "meta_norad_cat_id": 41581,
        "meta_element_set_no": 999,
        "meta_rev_at_epoch": 3492,
        "meta_bstar": 0,
        "meta_mean_motion_dot": -1.29e-06,
        "meta_mean_motion_ddot": 0,
        "tle_line1": "1 41581U 16035A   25357.81371185 -.00000129  00000+0  00000+0 0  9991",
        "tle_line2": "2 41581   0.0283 262.0550 0001926 303.3650  85.0534  1.00269658 34922"
      },
      "geometry": {
        "type": "Point",
        "coordinates": [
          -142.13701881571532,
          -0.013429962887660392
        ]
      }
    },
    {
      "type": "Feature",
      "properties": {
        "norad_id": 41747,
        "name": "INTELSAT 36 (IS-36)",
        "group": "intelsat",
        "lat": 0.007430562782037832,
        "lon": 21.440747515225365,
        "alt_km": 35786.83454726808,
        "timestamp": "2025-12-27T14:26:30.184339+00:00",
        "meta_object_name": "INTELSAT 36 (IS-36)",
        "meta_object_id": "2016-053A",
        "meta_epoch": "2025-12-27T03:03:20.357280",
        "meta_mean_motion": 1.00264918,
        "meta_eccentricity": 8.535e-05,
        "meta_inclination": 0.0102,
        "meta_ra_of_asc_node": 6.9586,
        "meta_arg_of_pericenter": 303.4342,
        "meta_mean_anomaly": 259.7991,
        "meta_ephemeris_type": 0,
        "meta_classification_type": "U",
        "meta_norad_cat_id": 41747,
        "meta_element_set_no": 999,
        "meta_rev_at_epoch": 3422,
        "meta_bstar": 0,
        "meta_mean_motion_dot": -1e-08,
        "meta_mean_motion_ddot": 0,
        "tle_line1": "1 41747U 16053A   25361.12731895 -.00000001  00000+0  00000+0 0  9991",
        "tle_line2": "2 41747   0.0102   6.9586 0000853 303.4342 259.7991  1.00264918 34221"
      },
      "geometry": {
        "type": "Point",
        "coordinates": [
          21.440747515225365,
          0.007430562782037832
        ]
      }
    },
    {
      "type": "Feature",
      "properties": {
        "norad_id": 41945,
        "name": "INTELSAT 32E (IS-32E)",
        "group": "intelsat",
        "lat": -0.020895591247274293,
        "lon": -90.2264906208981,
        "alt_km": 35785.35430825915,
        "timestamp": "2025-12-27T14:26:30.184350+00:00",
        "meta_object_name": "INTELSAT 32E (IS-32E)",
        "meta_object_id": "2017-007B",
        "meta_epoch": "2025-12-27T04:14:10.684320",
        "meta_mean_motion": 1.00273823,
        "meta_eccentricity": 3.014e-05,
        "meta_inclination": 0.0262,
        "meta_ra_of_asc_node": 75.2297,
        "meta_arg_of_pericenter": 275.2972,
        "meta_mean_anomaly": 125.7539,
        "meta_ephemeris_type": 0,
        "meta_classification_type": "U",
        "meta_norad_cat_id": 41945,
        "meta_element_set_no": 999,
        "meta_rev_at_epoch": 3250,
        "meta_bstar": 0,
        "meta_mean_motion_dot": -2.46e-06,
        "meta_mean_motion_ddot": 0,
        "tle_line1": "1 41945U 17007B   25361.17651255 -.00000246  00000+0  00000+0 0  9998",
        "tle_line2": "2 41945   0.0262  75.2297 0000301 275.2972 125.7539  1.00273823 32503"
      },
      "geometry": {
        "type": "Point",
        "coordinates": [
          -90.2264906208981,
          -0.020895591247274293
        ]
      }
    },
    {
      "type": "Feature",
      "properties": {
        "norad_id": 42818,
        "name": "INTELSAT 35E (IS-35E)",
        "group": "intelsat",
        "lat": -0.029905697245161487,
        "lon": -81.54014099957277,
        "alt_km": 35776.9437760259,
        "timestamp": "2025-12-27T14:26:30.184362+00:00",
        "meta_object_name": "INTELSAT 35E (IS-35E)",
        "meta_object_id": "2017-041A",
        "meta_epoch": "2025-12-27T05:59:23.108064",
        "meta_mean_motion": 1.00273326,
        "meta_eccentricity": 0.00020846,
        "meta_inclination": 0.0169,
        "meta_ra_of_asc_node": 44.8001,
        "meta_arg_of_pericenter": 225.9533,
        "meta_mean_anomaly": 240.5821,
        "meta_ephemeris_type": 0,
        "meta_classification_type": "U",
        "meta_norad_cat_id": 42818,
        "meta_element_set_no": 999,
        "meta_rev_at_epoch": 3109,
        "meta_bstar": 0,
        "meta_mean_motion_dot": -2.15e-06,
        "meta_mean_motion_ddot": 0,
        "tle_line1": "1 42818U 17041A   25361.24957301 -.00000215  00000+0  00000+0 0  9991",
        "tle_line2": "2 42818   0.0169  44.8001 0002084 225.9533 240.5821  1.00273326 31090"
      },
      "geometry": {
        "type": "Point",
        "coordinates": [
          -81.54014099957277,
          -0.029905697245161487
        ]
      }
    },
    {
      "type": "Feature",
      "properties": {
        "norad_id": 42950,
        "name": "INTELSAT 37E (IS-37E)",
        "group": "intelsat",
        "lat": -0.03590388540977442,
        "lon": -65.02310342763246,
        "alt_km": 35774.82527674411,
        "timestamp": "2025-12-27T14:26:30.184373+00:00",
        "meta_object_name": "INTELSAT 37E (IS-37E)",
        "meta_object_id": "2017-059A",
        "meta_epoch": "2025-12-27T06:04:07.654368",
        "meta_mean_motion": 1.0027135,
        "meta_eccentricity": 0.00031396,
        "meta_inclination": 0.0183,
        "meta_ra_of_asc_node": 31.0163,
        "meta_arg_of_pericenter": 232.9411,
        "meta_mean_anomaly": 265.0711,
        "meta_ephemeris_type": 0,
        "meta_classification_type": "U",
        "meta_norad_cat_id": 42950,
        "meta_element_set_no": 999,
        "meta_rev_at_epoch": 3034,
        "meta_bstar": 0,
        "meta_mean_motion_dot": -1.18e-06,
        "meta_mean_motion_ddot": 0,
        "tle_line1": "1 42950U 17059A   25361.25286637 -.00000118  00000+0  00000+0 0  9997",
        "tle_line2": "2 42950   0.0183  31.0163 0003139 232.9411 265.0711  1.00271350 30347"
      },
      "geometry": {
        "type": "Point",
        "coordinates": [
          -65.02310342763246,
          -0.03590388540977442
        ]
      }
    },
    {
      "type": "Feature",
      "properties": {
        "norad_id": 43632,
        "name": "AZERSPACE 2 (IS-38)",
        "group": "intelsat",
        "lat": -0.00014216770200351197,
        "lon": -1.9214784380645964,
        "alt_km": 35784.96741380018,
        "timestamp": "2025-12-27T14:26:30.184385+00:00",
        "meta_object_name": "AZERSPACE 2 (IS-38)",
        "meta_object_id": "2018-074A",
        "meta_epoch": "2025-12-27T04:39:23.270976",
        "meta_mean_motion": 1.00270862,
        "meta_eccentricity": 0.00015855,
        "meta_inclination": 0.0023,
        "meta_ra_of_asc_node": 104.065,
        "meta_arg_of_pericenter": 175.428,
        "meta_mean_anomaly": 291.3955,
        "meta_ephemeris_type": 0,
        "meta_classification_type": "U",
        "meta_norad_cat_id": 43632,
        "meta_element_set_no": 999,
        "meta_rev_at_epoch": 2672,
        "meta_bstar": 0,
        "meta_mean_motion_dot": 1.59e-06,
        "meta_mean_motion_ddot": 0,
        "tle_line1": "1 43632U 18074A   25361.19401934  .00000159  00000+0  00000+0 0  9999",
        "tle_line2": "2 43632   0.0023 104.0650 0001585 175.4280 291.3955  1.00270862 26724"
      },
      "geometry": {
        "type": "Point",
        "coordinates": [
          -1.9214784380645964,
          -0.00014216770200351197
        ]
      }
    },
    {
      "type": "Feature",
      "properties": {
        "norad_id": 43633,
        "name": "HORIZONS-3E",
        "group": "intelsat",
        "lat": -0.02970471562286616,
        "lon": 121.96489289407603,
        "alt_km": 35788.229847331524,
        "timestamp": "2025-12-27T14:26:30.184397+00:00",
        "meta_object_name": "HORIZONS-3E",
        "meta_object_id": "2018-074B",
        "meta_epoch": "2025-12-26T17:15:43.848864",
        "meta_mean_motion": 1.00274781,
        "meta_eccentricity": 7.286e-05,
        "meta_inclination": 0.0491,
        "meta_ra_of_asc_node": 194.9821,
        "meta_arg_of_pericenter": 94.8605,
        "meta_mean_anomaly": 233.5586,
        "meta_ephemeris_type": 0,
        "meta_classification_type": "U",
        "meta_norad_cat_id": 43633,
        "meta_element_set_no": 999,
        "meta_rev_at_epoch": 2661,
        "meta_bstar": 0,
        "meta_mean_motion_dot": -7e-08,
        "meta_mean_motion_ddot": 0,
        "tle_line1": "1 43633U 18074B   25360.71925751 -.00000007  00000+0  00000+0 0  9998",
        "tle_line2": "2 43633   0.0491 194.9821 0000728  94.8605 233.5586  1.00274781 26615"
      },
      "geometry": {
        "type": "Point",
        "coordinates": [
          121.96489289407603,
          -0.02970471562286616
        ]
      }
    }
  ]
}